{
    "links": {
        "self": "http://www.neowsapp.com/rest/v1/neo/3797897?api_key=iIulBulltgU6a56xZRHN4H3l9WmuAYTsLGpBGhQ2"
    },
    "id": "3797897",
    "neo_reference_id": "3797897",
    "name": "(2018 BZ4)",
    "designation": "2018 BZ4",
    "nasa_jpl_url": "http://ssd.jpl.nasa.gov/sbdb.cgi?sstr=3797897",
    "absolute_magnitude_h": 21.7,
    "estimated_diameter": {
        "kilometers": {
            "estimated_diameter_min": 0.1214940408,
            "estimated_diameter_max": 0.2716689341
        },
        "meters": {
            "estimated_diameter_min": 121.4940407996,
            "estimated_diameter_max": 271.6689340891
        },
        "miles": {
            "estimated_diameter_min": 0.0754928736,
            "estimated_diameter_max": 0.1688071972
        },
        "feet": {
            "estimated_diameter_min": 398.6025088171,
            "estimated_diameter_max": 891.3023057169
        }
    },
    "is_potentially_hazardous_asteroid": false,
    "close_approach_data": [
        {
            "close_approach_date": "2013-06-28",
            "close_approach_date_full": "2013-Jun-28 16:23",
            "epoch_date_close_approach": 1372436580000,
            "relative_velocity": {
                "kilometers_per_second": "8.4374023097",
                "kilometers_per_hour": "30374.6483150337",
                "miles_per_hour": "18873.6252266386"
            },
            "miss_distance": {
                "astronomical": "0.2093363683",
                "lunar": "81.4318472687",
                "kilometers": "31316274.811215521",
                "miles": "19459030.8404393498"
            },
            "orbiting_body": "Earth"
        },
        {
            "close_approach_date": "2018-01-29",
            "close_approach_date_full": "2018-Jan-29 08:11",
            "epoch_date_close_approach": 1517213460000,
            "relative_velocity": {
                "kilometers_per_second": "9.4960528026",
                "kilometers_per_hour": "34185.7900893443",
                "miles_per_hour": "21241.7205141262"
            },
            "miss_distance": {
                "astronomical": "0.4673413609",
                "lunar": "181.7957893901",
                "kilometers": "69913272.153541283",
                "miles": "43442092.8795963854"
            },
            "orbiting_body": "Earth"
        },
        {
            "close_approach_date": "2030-06-22",
            "close_approach_date_full": "2030-Jun-22 00:43",
            "epoch_date_close_approach": 1908319380000,
            "relative_velocity": {
                "kilometers_per_second": "12.5348377266",
                "kilometers_per_hour": "45125.4158159177",
                "miles_per_hour": "28039.1785107295"
            },
            "miss_distance": {
                "astronomical": "0.3634450128",
                "lunar": "141.3801099792",
                "kilometers": "54370599.777002736",
                "miles": "33784324.1015043168"
            },
            "orbiting_body": "Earth"
        }
    ],
    "orbital_data": {
        "orbit_id": "1",
        "orbit_determination_date": "2018-01-25 11:42:06",
        "first_observation_date": "2018-01-11",
        "last_observation_date": "2018-01-25",
        "data_arc_in_days": 14,
        "observations_used": 26,
        "orbit_uncertainty": "7",
        "minimum_orbit_intersection": ".209071",
        "jupiter_tisserand_invariant": "4.629",
        "epoch_osculation": "2459000.5",
        "eccentricity": ".2188571251959546",
        "semi_major_axis": "1.427533149599981",
        "inclination": "15.69220838769787",
        "ascending_node_longitude": "117.9217764418955",
        "orbital_period": "622.9852007333129",
        "perihelion_distance": "1.115107348356602",
        "perihelion_argument": "107.4641470155991",
        "aphelion_distance": "1.739958950843359",
        "perihelion_time": "2458905.431495714522",
        "mean_anomaly": "54.9365562817323",
        "mean_motion": ".5778628442156342",
        "equinox": "J2000",
        "orbit_class": {
            "orbit_class_type": "AMO",
            "orbit_class_description": "Near-Earth asteroid orbits similar to that of 1221 Amor",
            "orbit_class_range": "1.017 AU < q (perihelion) < 1.3 AU"
        }
    },
    "is_sentry_object": false
}